NUSAT-26 (M SOMERVILLE) 
1 52184U 22033AD  26189.97250317  .00012522  00000+0  28501-3 0  9990
2 52184  97.2336 268.8942 0006632 155.9123 204.2437 15.43078603108068
NUSAT-33 (ALBANIA-2)    
1 55047U 23001AQ  26189.95197495  .00005784  00000+0  21313-3 0  9998
2 55047  97.3061 250.4416 0005354 341.9892  18.1157 15.28192375195634
NUSAT-35 (WILLIAMINA)   
1 55048U 23001AR  26189.93176422  .00009048  00000+0  26220-3 0  9993
2 55048  97.1843 242.1336 0011211  32.1279 328.0646 15.35712103195740
NUSAT-39 (TIKVAH ALPER) 
1 56201U 23054Z   26189.90544263  .00020539  00000+0  39728-3 0  9997
2 56201  97.3097  99.8714 0002839 355.2571   4.8652 15.47778736181818
NUSAT-38 (MARIA AGNESI) 
1 56202U 23054AA  26189.91306359  .00024209  00000+0  41847-3 0  9994
2 56202  97.3035 100.5897 0009874 353.1845   6.9271 15.50912876181875
NUSAT-37 (JOAN CLARKE)  
1 56203U 23054AB  26190.00475668  .00035826  00000+0  45710-3 0  9997
2 56203  97.2607  97.5207 0006977 161.6870 198.4639 15.59182936182041
NUSAT-40 (C SHOEMAKER)  
1 56943U 23084M   26188.37826609  .00108475  00000+0  56159-3 0  9993
2 56943  97.4860 336.5542 0004469 200.5358 159.5731 15.80743307171993
NUSAT-41 (C PAYNE-G)    
1 56944U 23084N   26189.96973705  .00007141  00000+0  24801-3 0  9997
2 56944  97.5537 327.0347 0006016 235.9106 124.1564 15.30066028171116
NUSAT-42 (M WONENBURGER)
1 56966U 23084AL  26189.91562874  .00015834  00000+0  32252-3 0  9994
2 56966  97.5738 334.9519 0006375 166.3265 193.8157 15.46320735171433
NUSAT-44 (MARIA MITCHE*)
1 59122U 24043AA  26189.92431064  .00007209  00000+0  25265-3 0  9997
2 59122  97.5470 330.5205 0006110 149.8685 210.2908 15.29765064130595
NUSAT-50 (NANCY ROMAN)  
1 60493U 24149AB  26189.75039695  .00006365  00000+0  22009-3 0  9997
2 60493  97.3781 270.8602 0004764 117.1706 243.0021 15.30243083105421
NUSAT-48 (HENRIETTA LE*)
1 60498U 24149AG  26189.67383756  .00005961  00000+0  20661-3 0  9996
2 60498  97.3911 271.0648 0004189 178.7267 181.3985 15.30200838105424
NUSAT-49 (KLARA DAN VO*)
1 60500U 24149AJ  26189.78137068  .00006275  00000+0  21664-3 0  9998
2 60500  97.3775 270.9235 0001819 182.0121 178.1113 15.30310950105435
NUSAT-45 (UZMASAT-1)    
1 62640U 25009AH  26189.77039114  .00006495  00000+0  22413-3 0  9990
2 62640  97.3585 270.7769 0001186 199.4794 160.6402 15.30309203 82223
NUSAT-52                
1 66692U 25276AC  26189.74256836  .00003767  00000+0  17808-3 0  9997
2 66692  97.4198 262.9343 0001856 322.3450  37.7655 15.19996780 33696
NUSAT-51 (YVONNE BRILL) 
1 66740U 25276CC  26189.74596913  .00004478  00000+0  20793-3 0  9991
2 66740  97.4203 263.0751 0001541 279.6638  80.4423 15.20518216 33701
