{"fetched_at":"2026-07-09T18:17:14.308Z","source":"https://celestrak.org/NORAD/elements/gp.php?NAME=NUSAT&FORMAT=JSON","constellation":"satellogic","records":[{"OBJECT_NAME":"NUSAT-26 (M SOMERVILLE)","OBJECT_ID":"2022-033AD","EPOCH":"2026-07-08T23:20:24.273888","CLASSIFICATION_TYPE":"U","MEAN_MOTION":15.43078603,"ECCENTRICITY":0.00066325,"INCLINATION":97.2336,"RA_OF_ASC_NODE":268.8942,"ARG_OF_PERICENTER":155.9123,"MEAN_ANOMALY":204.2437,"EPHEMERIS_TYPE":0,"NORAD_CAT_ID":52184,"ELEMENT_SET_NO":999,"REV_AT_EPOCH":10806,"BSTAR":0.00028500682,"MEAN_MOTION_DOT":0.00012522,"MEAN_MOTION_DDOT":0},{"OBJECT_NAME":"NUSAT-33 (ALBANIA-2)","OBJECT_ID":"2023-001AQ","EPOCH":"2026-07-08T22:50:50.635680","CLASSIFICATION_TYPE":"U","MEAN_MOTION":15.28192375,"ECCENTRICITY":0.00053549,"INCLINATION":97.3061,"RA_OF_ASC_NODE":250.4416,"ARG_OF_PERICENTER":341.9892,"MEAN_ANOMALY":18.1157,"EPHEMERIS_TYPE":0,"NORAD_CAT_ID":55047,"ELEMENT_SET_NO":999,"REV_AT_EPOCH":19563,"BSTAR":0.00021312688,"MEAN_MOTION_DOT":0.00005784,"MEAN_MOTION_DDOT":0},{"OBJECT_NAME":"NUSAT-35 (WILLIAMINA)","OBJECT_ID":"2023-001AR","EPOCH":"2026-07-08T22:21:44.428608","CLASSIFICATION_TYPE":"U","MEAN_MOTION":15.35712103,"ECCENTRICITY":0.00112115,"INCLINATION":97.1843,"RA_OF_ASC_NODE":242.1336,"ARG_OF_PERICENTER":32.1279,"MEAN_ANOMALY":328.0646,"EPHEMERIS_TYPE":0,"NORAD_CAT_ID":55048,"ELEMENT_SET_NO":999,"REV_AT_EPOCH":19574,"BSTAR":0.00026220422,"MEAN_MOTION_DOT":0.00009048,"MEAN_MOTION_DDOT":0},{"OBJECT_NAME":"NUSAT-39 (TIKVAH ALPER)","OBJECT_ID":"2023-054Z","EPOCH":"2026-07-08T21:43:50.243232","CLASSIFICATION_TYPE":"U","MEAN_MOTION":15.47778736,"ECCENTRICITY":0.00028396,"INCLINATION":97.3097,"RA_OF_ASC_NODE":99.8714,"ARG_OF_PERICENTER":355.2571,"MEAN_ANOMALY":4.8652,"EPHEMERIS_TYPE":0,"NORAD_CAT_ID":56201,"ELEMENT_SET_NO":999,"REV_AT_EPOCH":18181,"BSTAR":0.00039727919,"MEAN_MOTION_DOT":0.00020539,"MEAN_MOTION_DDOT":0},{"OBJECT_NAME":"NUSAT-38 (MARIA AGNESI)","OBJECT_ID":"2023-054AA","EPOCH":"2026-07-08T21:54:48.694176","CLASSIFICATION_TYPE":"U","MEAN_MOTION":15.50912876,"ECCENTRICITY":0.00098741,"INCLINATION":97.3035,"RA_OF_ASC_NODE":100.5897,"ARG_OF_PERICENTER":353.1845,"MEAN_ANOMALY":6.9271,"EPHEMERIS_TYPE":0,"NORAD_CAT_ID":56202,"ELEMENT_SET_NO":999,"REV_AT_EPOCH":18187,"BSTAR":0.00041846842,"MEAN_MOTION_DOT":0.00024209,"MEAN_MOTION_DDOT":0},{"OBJECT_NAME":"NUSAT-37 (JOAN CLARKE)","OBJECT_ID":"2023-054AB","EPOCH":"2026-07-09T00:06:50.977152","CLASSIFICATION_TYPE":"U","MEAN_MOTION":15.59182936,"ECCENTRICITY":0.0006977,"INCLINATION":97.2607,"RA_OF_ASC_NODE":97.5207,"ARG_OF_PERICENTER":161.687,"MEAN_ANOMALY":198.4639,"EPHEMERIS_TYPE":0,"NORAD_CAT_ID":56203,"ELEMENT_SET_NO":999,"REV_AT_EPOCH":18204,"BSTAR":0.00045709961,"MEAN_MOTION_DOT":0.00035826,"MEAN_MOTION_DDOT":0},{"OBJECT_NAME":"NUSAT-40 (C SHOEMAKER)","OBJECT_ID":"2023-084M","EPOCH":"2026-07-07T09:04:42.190176","CLASSIFICATION_TYPE":"U","MEAN_MOTION":15.80743307,"ECCENTRICITY":0.00044694,"INCLINATION":97.486,"RA_OF_ASC_NODE":336.5542,"ARG_OF_PERICENTER":200.5358,"MEAN_ANOMALY":159.5731,"EPHEMERIS_TYPE":0,"NORAD_CAT_ID":56943,"ELEMENT_SET_NO":999,"REV_AT_EPOCH":17199,"BSTAR":0.00056158547,"MEAN_MOTION_DOT":0.00108475,"MEAN_MOTION_DDOT":0},{"OBJECT_NAME":"NUSAT-41 (C PAYNE-G)","OBJECT_ID":"2023-084N","EPOCH":"2026-07-08T23:16:25.281120","CLASSIFICATION_TYPE":"U","MEAN_MOTION":15.30066028,"ECCENTRICITY":0.00060163,"INCLINATION":97.5537,"RA_OF_ASC_NODE":327.0347,"ARG_OF_PERICENTER":235.9106,"MEAN_ANOMALY":124.1564,"EPHEMERIS_TYPE":0,"NORAD_CAT_ID":56944,"ELEMENT_SET_NO":999,"REV_AT_EPOCH":17111,"BSTAR":0.00024801277,"MEAN_MOTION_DOT":0.00007141,"MEAN_MOTION_DDOT":0},{"OBJECT_NAME":"NUSAT-42 (M WONENBURGER)","OBJECT_ID":"2023-084AL","EPOCH":"2026-07-08T21:58:30.323136","CLASSIFICATION_TYPE":"U","MEAN_MOTION":15.46320735,"ECCENTRICITY":0.0006375,"INCLINATION":97.5738,"RA_OF_ASC_NODE":334.9519,"ARG_OF_PERICENTER":166.3265,"MEAN_ANOMALY":193.8157,"EPHEMERIS_TYPE":0,"NORAD_CAT_ID":56966,"ELEMENT_SET_NO":999,"REV_AT_EPOCH":17143,"BSTAR":0.00032251651,"MEAN_MOTION_DOT":0.00015834,"MEAN_MOTION_DDOT":0},{"OBJECT_NAME":"NUSAT-44 (MARIA MITCHELL)","OBJECT_ID":"2024-043AA","EPOCH":"2026-07-08T22:11:00.439296","CLASSIFICATION_TYPE":"U","MEAN_MOTION":15.29765064,"ECCENTRICITY":0.00061107,"INCLINATION":97.547,"RA_OF_ASC_NODE":330.5205,"ARG_OF_PERICENTER":149.8685,"MEAN_ANOMALY":210.2908,"EPHEMERIS_TYPE":0,"NORAD_CAT_ID":59122,"ELEMENT_SET_NO":999,"REV_AT_EPOCH":13059,"BSTAR":0.00025264895,"MEAN_MOTION_DOT":0.00007209,"MEAN_MOTION_DDOT":0},{"OBJECT_NAME":"NUSAT-50 (NANCY ROMAN)","OBJECT_ID":"2024-149AB","EPOCH":"2026-07-08T18:00:34.296480","CLASSIFICATION_TYPE":"U","MEAN_MOTION":15.30243083,"ECCENTRICITY":0.00047644,"INCLINATION":97.3781,"RA_OF_ASC_NODE":270.8602,"ARG_OF_PERICENTER":117.1706,"MEAN_ANOMALY":243.0021,"EPHEMERIS_TYPE":0,"NORAD_CAT_ID":60493,"ELEMENT_SET_NO":999,"REV_AT_EPOCH":10542,"BSTAR":0.00022008917,"MEAN_MOTION_DOT":0.00006365,"MEAN_MOTION_DDOT":0},{"OBJECT_NAME":"NUSAT-48 (HENRIETTA LEAVITT)","OBJECT_ID":"2024-149AG","EPOCH":"2026-07-08T16:10:19.565184","CLASSIFICATION_TYPE":"U","MEAN_MOTION":15.30200838,"ECCENTRICITY":0.00041899,"INCLINATION":97.3911,"RA_OF_ASC_NODE":271.0648,"ARG_OF_PERICENTER":178.7267,"MEAN_ANOMALY":181.3985,"EPHEMERIS_TYPE":0,"NORAD_CAT_ID":60498,"ELEMENT_SET_NO":999,"REV_AT_EPOCH":10542,"BSTAR":0.00020660899,"MEAN_MOTION_DOT":0.00005961,"MEAN_MOTION_DDOT":0},{"OBJECT_NAME":"NUSAT-49 (KLARA DAN VON NEUMANN)","OBJECT_ID":"2024-149AJ","EPOCH":"2026-07-08T18:45:10.426752","CLASSIFICATION_TYPE":"U","MEAN_MOTION":15.3031095,"ECCENTRICITY":0.00018193,"INCLINATION":97.3775,"RA_OF_ASC_NODE":270.9235,"ARG_OF_PERICENTER":182.0121,"MEAN_ANOMALY":178.1113,"EPHEMERIS_TYPE":0,"NORAD_CAT_ID":60500,"ELEMENT_SET_NO":999,"REV_AT_EPOCH":10543,"BSTAR":0.00021663565,"MEAN_MOTION_DOT":0.00006275,"MEAN_MOTION_DDOT":0},{"OBJECT_NAME":"NUSAT-45 (UZMASAT-1)","OBJECT_ID":"2025-009AH","EPOCH":"2026-07-08T18:29:21.794496","CLASSIFICATION_TYPE":"U","MEAN_MOTION":15.30309203,"ECCENTRICITY":0.00011862,"INCLINATION":97.3585,"RA_OF_ASC_NODE":270.7769,"ARG_OF_PERICENTER":199.4794,"MEAN_ANOMALY":160.6402,"EPHEMERIS_TYPE":0,"NORAD_CAT_ID":62640,"ELEMENT_SET_NO":999,"REV_AT_EPOCH":8222,"BSTAR":0.00022413018,"MEAN_MOTION_DOT":0.00006495,"MEAN_MOTION_DDOT":0},{"OBJECT_NAME":"NUSAT-52","OBJECT_ID":"2025-276AC","EPOCH":"2026-07-08T17:49:17.906304","CLASSIFICATION_TYPE":"U","MEAN_MOTION":15.1999678,"ECCENTRICITY":0.00018564,"INCLINATION":97.4198,"RA_OF_ASC_NODE":262.9343,"ARG_OF_PERICENTER":322.345,"MEAN_ANOMALY":37.7655,"EPHEMERIS_TYPE":0,"NORAD_CAT_ID":66692,"ELEMENT_SET_NO":999,"REV_AT_EPOCH":3369,"BSTAR":0.00017807814,"MEAN_MOTION_DOT":0.00003767,"MEAN_MOTION_DDOT":0},{"OBJECT_NAME":"NUSAT-51 (YVONNE BRILL)","OBJECT_ID":"2025-276CC","EPOCH":"2026-07-08T17:54:11.732832","CLASSIFICATION_TYPE":"U","MEAN_MOTION":15.20518216,"ECCENTRICITY":0.00015416,"INCLINATION":97.4203,"RA_OF_ASC_NODE":263.0751,"ARG_OF_PERICENTER":279.6638,"MEAN_ANOMALY":80.4423,"EPHEMERIS_TYPE":0,"NORAD_CAT_ID":66740,"ELEMENT_SET_NO":999,"REV_AT_EPOCH":3370,"BSTAR":0.0002079326,"MEAN_MOTION_DOT":0.00004478,"MEAN_MOTION_DDOT":0}]}
